[{"OBJECT_NAME":"STARLINK-31796","OBJECT_ID":"2024-082R","EPOCH":"2026-03-09T04:10:50.376288","MEAN_MOTION":15.27574893,"ECCENTRICITY":0.0001059,"INCLINATION":43.0021,"RA_OF_ASC_NODE":142.6731,"ARG_OF_PERICENTER":228.3655,"MEAN_ANOMALY":131.7106,"EPHEMERIS_TYPE":0,"CLASSIFICATION_TYPE":"U","NORAD_CAT_ID":59646,"ELEMENT_SET_NO":999,"REV_AT_EPOCH":10489,"BSTAR":-1.66762e-5,"MEAN_MOTION_DOT":-7.21e-6,"MEAN_MOTION_DDOT":0},{"OBJECT_NAME":"FLOCK 4G-22","OBJECT_ID":"2025-009AN","EPOCH":"2026-03-09T22:51:40.689792","MEAN_MOTION":15.2720903,"ECCENTRICITY":8.959e-5,"INCLINATION":97.4046,"RA_OF_ASC_NODE":151.5884,"ARG_OF_PERICENTER":284.1963,"MEAN_ANOMALY":75.9176,"EPHEMERIS_TYPE":0,"CLASSIFICATION_TYPE":"U","NORAD_CAT_ID":62645,"ELEMENT_SET_NO":999,"REV_AT_EPOCH":6376,"BSTAR":0.00049035383,"MEAN_MOTION_DOT":0.00013013,"MEAN_MOTION_DDOT":0}]
